City|State|Zipcode|Latitude|Longitude
Aberdeen|WA|98520|46.9890|-123.8190
Aberdeen|WA|98535|47.1153|-124.1174
Aberdeen|WA|98536|47.1497|-124.0985
Aberdeen|WA|98537|46.8795|-123.7145
Aberdeen|WA|98547|46.7624|-124.0795
Aberdeen|WA|98550|46.9888|-123.8841
Aberdeen|WA|98552|47.4040|-123.8817
Aberdeen|WA|98562|47.3356|-124.0588
Aberdeen|WA|98563|46.9823|-123.6099
Aberdeen|WA|98569|46.9847|-124.1515
Aberdeen|WA|98571|47.2088|-124.2035
Aberdeen|WA|98590|46.7076|-123.9821
Aberdeen|WA|98595|46.8739|-124.1085
Adams - Mt. Greylock|MA|01070|42.5156|-72.9177
Adams - Mt. Greylock|MA|01225|42.5763|-73.1494
Adams - Mt. Greylock|MA|01237|42.5180|-73.2321
Adams - Mt. Greylock|MA|01247|42.6990|-73.1191
Adams - Mt. Greylock|MA|01256|42.5746|-73.0363
Adams - Mt. Greylock|MA|01267|42.6983|-73.1937
Adams - Mt. Greylock|MA|01270|42.5059|-73.0621
Adams - Mt. Greylock|MA|01339|42.6377|-72.9053
Adams - Mt. Greylock|MA|01343|42.6571|-73.0025
Adams - Mt. Greylock|MA|01367|42.7059|-72.9083
Adams - Mt. Greylock|MA|01220|42.6264|-73.1125
Adirondacks Region|NY|12032|43.1695|-74.5101
Adirondacks Region|NY|12108|43.4528|-74.4545
Adirondacks Region|NY|12134|43.2318|-74.1706
Adirondacks Region|NY|12139|43.3998|-74.5429
Adirondacks Region|NY|12190|43.4307|-74.2669
Adirondacks Region|NY|12164|43.5022|-74.3645
Adirondacks Region|NY|12801|43.3092|-73.6505
Adirondacks Region|NY|12810|43.4818|-73.8861
Adirondacks Region|NY|12812|43.8604|-74.4340
Adirondacks Region|NY|12814|43.5807|-73.6627
Adirondacks Region|NY|12815|43.7039|-73.7258
Adirondacks Region|NY|12901|44.6869|-73.4904
Adirondacks Region|NY|12903|44.6646|-73.4583
Adirondacks Region|NY|12910|44.8898|-73.6501
Adirondacks Region|NY|12911|44.5225|-73.4626
Adirondacks Region|NY|12912|44.4606|-73.6516
Adirondacks Region|NY|12913|44.4046|-74.0871
Adirondacks Region|NY|12914|44.9329|-74.5475
Adirondacks Region|NY|12916|44.8380|-74.5140
Adirondacks Region|NY|12917|44.9040|-74.1827
Adirondacks Region|NY|12918|44.6889|-73.6677
Adirondacks Region|NY|12919|44.9891|-73.4426
Adirondacks Region|NY|12920|44.9286|-74.0827
Adirondacks Region|NY|12921|44.8874|-73.4267
Adirondacks Region|NY|12922|44.2863|-74.6732
Adirondacks Region|NY|12923|44.9292|-73.9478
Adirondacks Region|NY|12924|44.4718|-73.5907
Adirondacks Region|NY|12926|44.9298|-74.2913
Adirondacks Region|NY|12928|43.9518|-73.4344
Adirondacks Region|NY|12930|44.7222|-74.5433
Adirondacks Region|NY|12932|44.2390|-73.5702
Adirondacks Region|NY|12934|44.8442|-73.8879
Adirondacks Region|NY|12935|44.8982|-73.8000
Adirondacks Region|NY|12936|44.2760|-73.3914
Adirondacks Region|NY|12937|44.9781|-74.5487
Adirondacks Region|NY|12941|44.4224|-73.7236
Adirondacks Region|NY|12942|44.2593|-73.7921
Adirondacks Region|NY|12943|44.1986|-73.7860
Adirondacks Region|NY|12944|44.5109|-73.4876
Adirondacks Region|NY|12945|44.3568|-74.2699
Adirondacks Region|NY|12946|44.2784|-73.9767
Adirondacks Region|NY|12949|44.8061|-74.6788
Adirondacks Region|NY|12950|44.2904|-73.5630
Adirondacks Region|NY|12952|44.7311|-73.9566
Adirondacks Region|NY|12953|44.8467|-74.3040
Adirondacks Region|NY|12955|44.7755|-73.9621
Adirondacks Region|NY|12956|44.0908|-73.5170
Adirondacks Region|NY|12957|44.8235|-74.5640
Adirondacks Region|NY|12958|44.9654|-73.5734
Adirondacks Region|NY|12959|44.9431|-73.6663
Adirondacks Region|NY|12960|44.0341|-73.4802
Adirondacks Region|NY|12961|44.0439|-73.5579
Adirondacks Region|NY|12962|44.6515|-73.5853
Adirondacks Region|NY|12964|44.0893|-73.6771
Adirondacks Region|NY|12965|44.7052|-74.7170
Adirondacks Region|NY|12966|44.7854|-74.3890
Adirondacks Region|NY|12967|44.7651|-74.6961
Adirondacks Region|NY|12969|44.7048|-74.1267
Adirondacks Region|NY|12970|44.4412|-74.2544
Adirondacks Region|NY|12972|44.5517|-73.4964
Adirondacks Region|NY|12973|44.2314|-74.5660
Adirondacks Region|NY|12974|44.0473|-73.4667
Adirondacks Region|NY|12978|44.6152|-73.7944
Adirondacks Region|NY|12979|44.9842|-73.3722
Adirondacks Region|NY|12980|44.6661|-74.5774
Adirondacks Region|NY|12981|44.6407|-73.7439
Adirondacks Region|NY|12983|44.3468|-74.3241
Adirondacks Region|NY|12985|44.6173|-73.6044
Adirondacks Region|NY|12986|44.2215|-74.4644
Adirondacks Region|NY|12987|44.3330|-73.7747
Adirondacks Region|NY|12989|44.4577|-74.0640
Adirondacks Region|NY|12992|44.8238|-73.5143
Adirondacks Region|NY|12993|44.1976|-73.4397
Adirondacks Region|NY|12996|44.3637|-73.3938
Adirondacks Region|NY|12997|44.4008|-73.8133
Adirondacks Region|NY|12824|43.5285|-73.6945
Adirondacks Region|NY|12817|43.6569|-73.8330
Adirondacks Region|NY|12836|43.7491|-73.5140
Adirondacks Region|NY|12804|43.3297|-73.6793
Adirondacks Region|NY|12808|43.7404|-73.7823
Adirondacks Region|NY|12842|43.7778|-74.2596
Adirondacks Region|NY|12843|43.6101|-73.9943
Adirondacks Region|NY|12845|43.4259|-73.7150
Adirondacks Region|NY|12846|43.3348|-73.8393
Adirondacks Region|NY|12847|43.9361|-74.4613
Adirondacks Region|NY|12851|43.7835|-73.9775
Adirondacks Region|NY|12852|43.9748|-74.1227
Adirondacks Region|NY|12853|43.7305|-73.9583
Adirondacks Region|NY|12855|44.0005|-73.7044
Adirondacks Region|NY|12857|43.7790|-73.9513
Adirondacks Region|NY|12858|43.8860|-73.6698
Adirondacks Region|NY|12860|43.7323|-73.8181
Adirondacks Region|NY|12870|43.8381|-73.7628
Adirondacks Region|NY|12872|43.8833|-73.7177
Adirondacks Region|NY|12874|43.6801|-73.5090
Adirondacks Region|NY|12878|43.4269|-73.9322
Adirondacks Region|NY|12883|43.8380|-73.4379
Adirondacks Region|NY|12885|43.4962|-73.8108
Adirondacks Region|NY|12886|43.6344|-73.9396
Adirondacks Region|NY|13694|44.8595|-75.1950
Adirondacks Region|NY|13695|44.1004|-75.0941
Adirondacks Region|NY|13696|44.7135|-74.8991
Adirondacks Region|NY|13697|44.7772|-74.7977
Adirondacks Region|NY|13331|43.8230|-74.8531
Adirondacks Region|NY|13324|43.3407|-74.9656
Adirondacks Region|NY|13360|43.7501|-74.7932
Adirondacks Region|NY|13353|43.3911|-74.7899
Adirondacks Region|NY|13420|43.7464|-74.8832
Adirondacks Region|NY|13436|43.8043|-74.6247
Adirondacks Region|NY|13613|44.7992|-74.7650
Adirondacks Region|NY|13614|44.5182|-75.7025
Adirondacks Region|NY|13617|44.6002|-75.1656
Adirondacks Region|NY|13621|44.8425|-75.0901
Adirondacks Region|NY|13625|44.5410|-74.9330
Adirondacks Region|NY|13635|44.3226|-75.2525
Adirondacks Region|NY|13630|44.5085|-75.2765
Adirondacks Region|NY|13633|44.4671|-75.5004
Adirondacks Region|NY|13639|44.2459|-75.1331
Adirondacks Region|NY|13642|44.3274|-75.4747
Adirondacks Region|NY|13646|44.4949|-75.7602
Adirondacks Region|NY|13648|44.1322|-75.3914
Adirondacks Region|NY|13652|44.4645|-75.2269
Adirondacks Region|NY|13654|44.6203|-75.4100
Adirondacks Region|NY|13655|44.9781|-74.6644
Adirondacks Region|NY|13658|44.7256|-75.3212
Adirondacks Region|NY|13660|44.7475|-75.1336
Adirondacks Region|NY|13666|44.2093|-74.9899
Adirondacks Region|NY|13667|44.8287|-74.9786
Adirondacks Region|NY|13668|44.7450|-74.9996
Adirondacks Region|NY|13669|44.7228|-75.4364
Adirondacks Region|NY|13670|44.1998|-75.0628
Adirondacks Region|NY|13672|44.6240|-74.8149
Adirondacks Region|NY|13662|44.9242|-74.8790
Adirondacks Region|NY|13676|44.6791|-74.9889
Adirondacks Region|NY|13680|44.5948|-75.3194
Adirondacks Region|NY|13681|44.4133|-75.3960
Adirondacks Region|NY|13684|44.4284|-75.1440
Adirondacks Region|NY|13687|44.5104|-74.8832
Adirondacks Region|NY|13690|44.1626|-75.0469
Aiken-Augusta - SC/GA|SC|29821|33.6497|-82.1621
Aiken-Augusta - SC/GA|SC|29824|33.7924|-81.9220
Aiken-Augusta - SC/GA|SC|29829|33.5697|-81.8405
Aiken-Augusta - SC/GA|SC|29831|33.3542|-81.7714
Aiken-Augusta - SC/GA|SC|29832|33.8058|-81.8109
Aiken-Augusta - SC/GA|SC|29835|33.9147|-82.3874
Aiken-Augusta - SC/GA|SC|29838|33.7381|-82.1335
Aiken-Augusta - SC/GA|SC|29840|33.9873|-82.5252
Aiken-Augusta - SC/GA|SC|29841|33.5223|-81.9458
Aiken-Augusta - SC/GA|SC|29842|33.4494|-81.8691
Aiken-Augusta - SC/GA|SC|29845|33.8269|-82.2706
Aiken-Augusta - SC/GA|SC|29847|33.6636|-81.8764
Aiken-Augusta - SC/GA|SC|29848|33.9995|-82.1303
Aiken-Augusta - SC/GA|SC|29851|33.5166|-81.8245
Aiken-Augusta - SC/GA|SC|29853|33.3939|-81.4288
Aiken-Augusta - SC/GA|SC|29856|33.4978|-81.4611
Aiken-Augusta - SC/GA|SC|29860|33.6010|-81.9696
Aiken-Augusta - SC/GA|SC|29164|33.6636|-81.3910
Aiken-Augusta - SC/GA|SC|29105|33.8311|-81.6045
Aiken-Augusta - SC/GA|SC|29146|33.4975|-81.2251
Aiken-Augusta - SC/GA|SC|29137|33.6318|-81.2811
Aiken-Augusta - SC/GA|SC|30802|33.6080|-82.3539
Aiken-Augusta - SC/GA|SC|30805|33.3127|-82.1818
Aiken-Augusta - SC/GA|SC|30808|33.3790|-82.3881
Aiken-Augusta - SC/GA|SC|30809|33.5547|-82.1621
Aiken-Augusta - SC/GA|SC|30813|33.4638|-82.2021
Aiken-Augusta - SC/GA|SC|30814|33.4378|-82.2956
Aiken-Augusta - SC/GA|SC|30815|33.3411|-82.0749
Aiken-Augusta - SC/GA|SC|30824|33.4513|-82.4887
Aiken-Augusta - SC/GA|SC|30901|33.4577|-81.9602
Aiken-Augusta - SC/GA|SC|30904|33.4810|-82.0154
Aiken-Augusta - SC/GA|SC|30905|33.4136|-82.1285
Aiken-Augusta - SC/GA|SC|30906|33.3852|-82.0074
Aiken-Augusta - SC/GA|SC|30907|33.5250|-82.0831
Aiken-Augusta - SC/GA|SC|30909|33.4800|-82.0744
Aiken-Augusta - SC/GA|SC|29801|33.5955|-81.7461
Aiken-Augusta - SC/GA|SC|29803|33.4548|-81.7136
Aiken-Augusta - SC/GA|SC|29805|33.6758|-81.6168
Aiken-Augusta - SC/GA|SC|29808|33.5403|-81.7079
Aiken-Augusta - SC/GA|SC|29809|33.4137|-81.6891
Aiken-Augusta - SC/GA|SC|29812|33.2326|-81.3500
Aiken-Augusta - SC/GA|SC|29817|33.3503|-81.2790
Albuquerque|NM|87102|35.0785|-106.6441
Albuquerque|NM|87104|35.1032|-106.6728
Albuquerque|NM|87105|35.0331|-106.6833
Albuquerque|NM|87106|35.0698|-106.6221
Albuquerque|NM|87107|35.1419|-106.6448
Albuquerque|NM|87108|35.0697|-106.5775
Albuquerque|NM|87109|35.1508|-106.5800
Albuquerque|NM|87110|35.1091|-106.5776
Albuquerque|NM|87111|35.1385|-106.5169
Albuquerque|NM|87112|35.1006|-106.5171
Albuquerque|NM|87113|35.1784|-106.5886
Albuquerque|NM|87114|35.1957|-106.6811
Albuquerque|NM|87116|35.0597|-106.5431
Albuquerque|NM|87117|35.0560|-106.5534
Albuquerque|NM|87120|35.1399|-106.7043
Albuquerque|NM|87121|35.0289|-106.7353
Albuquerque|NM|87122|35.1843|-106.5203
Albuquerque|NM|87123|35.0653|-106.5077
Albuquerque|NM|87131|35.0960|-106.6313
Alexandria|LA|71301|31.2863|-92.4669
Alexandria|LA|71302|31.2593|-92.4268
Alexandria|LA|71303|31.3022|-92.5113
Alexandria|LA|71360|31.3279|-92.4050
Altoona|PA|16673|40.3319|-78.3859
Altoona|PA|16686|40.6697|-78.2717
Altoona|PA|16693|40.4337|-78.2243
Altoona|PA|16617|40.6022|-78.3316
Altoona|PA|16625|40.2871|-78.4847
Altoona|PA|16601|40.5547|-78.3934
Altoona|PA|16602|40.5092|-78.3884
Altoona|PA|16635|40.4462|-78.4778
Altoona|PA|16637|40.3418|-78.4463
Altoona|PA|16648|40.4448|-78.3562
Altoona|PA|16662|40.3117|-78.2989
Amherst|MA|01452|42.5153|-71.9910
Amherst|MA|01453|42.5235|-71.7582
Amherst|MA|01436|42.6060|-72.0800
Amherst|MA|01440|42.5778|-71.9928
Amherst|MA|01468|42.5460|-72.0483
Amherst|MA|01469|42.6581|-71.6785
Amherst|MA|01473|42.5514|-71.9092
Amherst|MA|01474|42.6773|-71.7486
Amherst|MA|01475|42.6607|-72.0412
Amherst|MA|01368|42.6332|-72.1412
Amherst|MA|01370|42.6150|-72.7550
Amherst|MA|01373|42.4821|-72.6140
Amherst|MA|01375|42.4553|-72.5747
Amherst|MA|01376|42.5942|-72.5588
Amherst|MA|01378|42.6815|-72.3228
Amherst|MA|01379|42.5414|-72.4013
Amherst|MA|01420|42.5885|-71.8130
Amherst|MA|01430|42.6267|-71.9218
Amherst|MA|01431|42.6735|-71.8117
Amherst|MA|01344|42.5865|-72.4865
Amherst|MA|01349|42.5770|-72.5009
Amherst|MA|01351|42.5334|-72.5337
Amherst|MA|01355|42.5179|-72.3545
Amherst|MA|01360|42.7013|-72.4529
Amherst|MA|01364|42.5784|-72.2860
Amherst|MA|01523|42.4633|-71.6876
Amherst|MA|01541|42.4518|-71.8718
Amherst|MA|01340|42.6638|-72.6647
Amherst|MA|01341|42.5138|-72.7022
Amherst|MA|01342|42.5204|-72.6160
Amherst|MA|01301|42.5966|-72.5974
Amherst|MA|01331|42.5807|-72.2294
Amherst|MA|01337|42.6778|-72.5374
Amherst|MA|01072|42.4989|-72.4244
Amherst|MA|01060|42.3318|-72.6367
Amherst|MA|01062|42.3252|-72.6717
Amherst|MA|01063|42.3203|-72.6397
Amherst|MA|01035|42.3460|-72.5746
Amherst|MA|01088|42.3786|-72.6540
Amherst|MA|01002|42.3697|-72.5020
Amherst|MA|01003|42.3899|-72.5250
Amherst|MA|01005|42.4040|-72.1171
Amherst|MA|01028|42.0627|-72.5001
Amherst|MA|01038|42.3719|-72.6125
Amherst|MA|01040|42.1968|-72.6411
Amherst|MA|01054|42.4503|-72.5089
Amherst|MA|01462|42.5861|-71.7457
Amherst|MA|01463|42.6673|-71.5947
Anacortes|WA|98221|48.4923|-122.6065
Anchorage|AK|99501|61.2215|-149.8572
Anchorage|AK|99502|61.1650|-149.9522
Anchorage|AK|99503|61.1889|-149.8905
Anchorage|AK|99507|61.1448|-149.8235
Anchorage|AK|99508|61.2061|-149.8108
Anchorage|AK|99515|61.1168|-149.9185
Anchorage|AK|99516|61.0821|-149.7773
Anchorage|AK|99517|61.1493|-150.2059
Anchorage|AK|99518|61.1591|-149.8832
Ann Arbor|MI|48118|42.3171|-84.0200
Ann Arbor|MI|48103|42.2755|-83.7992
Ann Arbor|MI|48104|42.2707|-83.7227
Ann Arbor|MI|48105|42.3226|-83.7078
Ann Arbor|MI|48108|42.2188|-83.7587
Ann Arbor|MI|48109|42.2783|-83.7353
Ann Arbor|MI|48130|42.3175|-83.8992
Ann Arbor|MI|48137|42.4475|-84.0790
Ann Arbor|MI|48160|42.0984|-83.6528
Ann Arbor|MI|48114|42.5785|-83.7663
Ann Arbor|MI|48116|42.5015|-83.7774
Ann Arbor|MI|48158|42.1554|-84.0438
Ann Arbor|MI|48169|42.4667|-83.8884
Ann Arbor|MI|48176|42.1551|-83.7988
Ann Arbor|MI|48178|42.4693|-83.6383
Ann Arbor|MI|48197|42.2070|-83.6343
Ann Arbor|MI|48198|42.2630|-83.5795
Ann Arbor|MI|48353|42.6486|-83.7176
Ann Arbor|MI|48380|42.5871|-83.6469
Ann Arbor|MI|48189|42.3951|-83.7595
Ann Arbor|MI|48191|42.1123|-83.5700
Ann Arbor|MI|48836|42.6358|-84.0376
Ann Arbor|MI|48843|42.5685|-83.9202
Ann Arbor|MI|48855|42.6894|-83.8704
Ann Arbor|MI|49201|42.2814|-84.3843
Ann Arbor|MI|49202|42.2738|-84.4269
Ann Arbor|MI|49203|42.2161|-84.4106
Ann Arbor|MI|49220|42.0035|-84.3466
Ann Arbor|MI|49221|41.9045|-84.0415
Ann Arbor|MI|49227|41.9276|-84.7679
Ann Arbor|MI|49228|41.8427|-83.8656
Ann Arbor|MI|49229|41.9630|-83.8977
Ann Arbor|MI|49230|42.1096|-84.2308
Ann Arbor|MI|49232|41.7200|-84.6311
Ann Arbor|MI|49233|42.0560|-84.3160
Ann Arbor|MI|49234|42.1242|-84.3257
Ann Arbor|MI|49235|41.8993|-84.2242
Ann Arbor|MI|49236|42.0627|-84.0078
Ann Arbor|MI|49237|42.1845|-84.6508
Ann Arbor|MI|49238|41.8974|-83.7794
Ann Arbor|MI|49240|42.2490|-84.1958
Ann Arbor|MI|49241|42.0998|-84.5399
Ann Arbor|MI|49242|41.8923|-84.6926
Ann Arbor|MI|49246|42.1055|-84.4584
Ann Arbor|MI|49247|41.8586|-84.3459
Ann Arbor|MI|49248|41.7899|-84.0404
Ann Arbor|MI|49249|42.0293|-84.4499
Ann Arbor|MI|49250|42.0076|-84.6706
Ann Arbor|MI|49252|42.0356|-84.7583
Ann Arbor|MI|49253|41.9701|-84.2811
Ann Arbor|MI|49254|42.2282|-84.3201
Ann Arbor|MI|49256|41.7663|-84.2190
Ann Arbor|MI|49259|42.3888|-84.2522
Ann Arbor|MI|49262|41.9709|-84.5141
Ann Arbor|MI|49265|42.0188|-84.1633
Ann Arbor|MI|49266|41.8842|-84.5441
Ann Arbor|MI|49268|41.8747|-83.9325
Ann Arbor|MI|49269|42.3060|-84.5797
Ann Arbor|MI|49271|41.8556|-84.4585
Ann Arbor|MI|49272|42.3980|-84.3442
Ann Arbor|MI|49274|41.8137|-84.7864
Ann Arbor|MI|49276|41.7875|-83.8133
Ann Arbor|MI|49277|42.3864|-84.4432
Ann Arbor|MI|49279|41.8153|-84.1086
Ann Arbor|MI|49283|42.2053|-84.5471
Ann Arbor|MI|49284|42.3770|-84.6892
Ann Arbor|MI|49286|41.9953|-83.9539
Ann Arbor|MI|49287|42.0351|-84.0745
Ann Arbor|MI|49288|41.7330|-84.4382
Antelope Vly|CA|93534|34.6832|-118.1479
Antelope Vly|CA|93535|34.7039|-118.0823
Antelope Vly|CA|93536|34.6695|-118.2379
Antelope Vly|CA|93539|34.6787|-118.1657
Antelope Vly|CA|93543|34.5466|-117.9577
Antelope Vly|CA|93544|34.4940|-117.8354
Antelope Vly|CA|93550|34.5603|-118.0911
Antelope Vly|CA|93551|34.5794|-118.1434
Antelope Vly|CA|93552|34.5544|-118.0264
Antelope Vly|CA|93553|34.4901|-117.8956
Antelope Vly|CA|93584|34.6981|-118.1389
Antelope Vly|CA|93586|34.6476|-118.2184
Antelope Vly|CA|93590|34.5802|-118.0889
Antelope Vly|CA|93591|34.5926|-117.8346
Antelope Vly|CA|93599|34.6033|-118.1164
Anza Vly|CA|92536|33.4816|-116.7845
Anza Vly|CA|92539|33.5663|-116.6804
Anza Vly|CA|92561|33.6106|-116.4343
Apache Junction|AZ|85118|33.3645|-111.4512
Apache Junction|AZ|85119|33.4209|-111.5115
Apache Junction|AZ|85120|33.4012|-111.5650
Arden Arcade-Del Paso Manor|CA|95860|38.6104|-121.3811
Asheville Valleys (below 4000 feet)|NC|28701|35.6768|-82.6375
Asheville Valleys (below 4000 feet)|NC|28704|35.4597|-82.5523
Asheville Valleys (below 4000 feet)|NC|28708|35.2274|-82.8670
Asheville Valleys (below 4000 feet)|NC|28709|35.7826|-82.4410
Asheville Valleys (below 4000 feet)|NC|28711|35.6115|-82.3272
Asheville Valleys (below 4000 feet)|NC|28712|35.1833|-82.7087
Asheville Valleys (below 4000 feet)|NC|28713|35.3915|-83.4978
Asheville Valleys (below 4000 feet)|NC|28714|35.8795|-82.3823
Asheville Valleys (below 4000 feet)|NC|28715|35.5349|-82.7053
Asheville Valleys (below 4000 feet)|NC|28716|35.4996|-82.8407
Asheville Valleys (below 4000 feet)|NC|28717|35.1065|-83.1030
Asheville Valleys (below 4000 feet)|NC|28718|35.1488|-82.6509
Asheville Valleys (below 4000 feet)|NC|28719|35.4804|-83.3224
Asheville Valleys (below 4000 feet)|NC|28721|35.5611|-82.9323
Asheville Valleys (below 4000 feet)|NC|28723|35.1547|-83.1407
Asheville Valleys (below 4000 feet)|NC|28726|35.2834|-82.4173
Asheville Valleys (below 4000 feet)|NC|28729|35.3220|-82.5994
Asheville Valleys (below 4000 feet)|NC|28730|35.5222|-82.4054
Asheville Valleys (below 4000 feet)|NC|28731|35.3046|-82.3781
Asheville Valleys (below 4000 feet)|NC|28732|35.4344|-82.4796
Asheville Valleys (below 4000 feet)|NC|28735|35.4767|-82.3506
Asheville Valleys (below 4000 feet)|NC|28736|35.1730|-83.1112
Asheville Valleys (below 4000 feet)|NC|28739|35.2900|-82.5328
Asheville Valleys (below 4000 feet)|NC|28740|36.0035|-82.2938
Asheville Valleys (below 4000 feet)|NC|28742|35.3864|-82.6280
Asheville Valleys (below 4000 feet)|NC|28743|35.7840|-82.9323
Asheville Valleys (below 4000 feet)|NC|28745|35.5248|-82.9728
Asheville Valleys (below 4000 feet)|NC|28747|35.1531|-82.9215
Asheville Valleys (below 4000 feet)|NC|28748|35.6458|-82.7559
Asheville Valleys (below 4000 feet)|NC|28751|35.5378|-83.0900
Asheville Valleys (below 4000 feet)|NC|28753|35.8701|-82.6033
Asheville Valleys (below 4000 feet)|NC|28754|35.8776|-82.4695
Asheville Valleys (below 4000 feet)|NC|28759|35.3810|-82.5846
Asheville Valleys (below 4000 feet)|NC|28766|35.2468|-82.6237
Asheville Valleys (below 4000 feet)|NC|28768|35.2768|-82.6655
Asheville Valleys (below 4000 feet)|NC|28772|35.1024|-82.8192
Asheville Valleys (below 4000 feet)|NC|28773|35.2272|-82.3257
Asheville Valleys (below 4000 feet)|NC|28774|35.1280|-83.0258
Asheville Valleys (below 4000 feet)|NC|28778|35.6070|-82.4086
Asheville Valleys (below 4000 feet)|NC|28779|35.3389|-83.2348
Asheville Valleys (below 4000 feet)|NC|28783|35.2530|-83.0856
Asheville Valleys (below 4000 feet)|NC|28785|35.5990|-83.0114
Asheville Valleys (below 4000 feet)|NC|28786|35.4773|-83.0008
Asheville Valleys (below 4000 feet)|NC|28787|35.7320|-82.5693
Asheville Valleys (below 4000 feet)|NC|28789|35.4135|-83.2992
Asheville Valleys (below 4000 feet)|NC|28790|35.2103|-82.4607
Asheville Valleys (below 4000 feet)|NC|28791|35.3634|-82.5079
Asheville Valleys (below 4000 feet)|NC|28792|35.3766|-82.3836
Asheville Valleys (below 4000 feet)|NC|28801|35.5899|-82.5577
Asheville Valleys (below 4000 feet)|NC|28803|35.5341|-82.5296
Asheville Valleys (below 4000 feet)|NC|28804|35.6464|-82.5616
Asheville Valleys (below 4000 feet)|NC|28805|35.6136|-82.4780
Asheville Valleys (below 4000 feet)|NC|28806|35.5650|-82.6188
Atascadero|CA|93422|35.4672|-120.6886
Atascadero|CA|93432|35.4399|-120.4779
Athol (seasonal)|ID|83801|47.9186|-116.7560
Atlanta|GA|30002|33.7743|-84.2597
Atlanta|GA|30004|34.1334|-84.2371
Atlanta|GA|30005|34.0812|-84.2252
Atlanta|GA|30008|33.9024|-84.5898
Atlanta|GA|30011|34.0177|-83.8294
Atlanta|GA|30012|33.7113|-84.0040
Atlanta|GA|30013|33.6434|-83.9769
Atlanta|GA|30014|33.7279|-83.8199
Atlanta|GA|30016|33.5358|-84.0419
Atlanta|GA|30017|33.8876|-83.9710
Atlanta|GA|30019|33.9615|-83.8792
Atlanta|GA|30021|33.8076|-84.2397
Atlanta|GA|30022|34.0212|-84.2346
Atlanta|GA|30024|34.0406|-84.0645
Atlanta|GA|30025|33.6634|-83.7231
Atlanta|GA|30030|33.7711|-84.2923
Atlanta|GA|30032|33.7490|-84.2544
Atlanta|GA|30033|33.8166|-84.2815
Atlanta|GA|30034|33.6901|-84.2482
Atlanta|GA|30035|33.7316|-84.2116
Atlanta|GA|30038|33.6664|-84.1766
Atlanta|GA|30039|33.8032|-84.0313
Atlanta|GA|30040|34.2114|-84.1885
Atlanta|GA|30041|34.1722|-84.1096
Atlanta|GA|30043|34.0072|-83.9810
Atlanta|GA|30044|33.9206|-84.0584
Atlanta|GA|30045|33.9434|-83.9361
Atlanta|GA|30047|33.8659|-84.1100
Atlanta|GA|30052|33.8048|-83.8848
Atlanta|GA|30054|33.6725|-83.8688
Atlanta|GA|30055|33.4141|-83.7739
Atlanta|GA|30056|33.4762|-83.6386
Atlanta|GA|30058|33.7435|-84.1144
Atlanta|GA|30060|33.9128|-84.5495
Atlanta|GA|30062|34.0064|-84.4482
Atlanta|GA|30064|33.9296|-84.6176
Atlanta|GA|30066|34.0253|-84.5243
Atlanta|GA|30067|33.9335|-84.4645
Atlanta|GA|30068|33.9715|-84.4349
Atlanta|GA|30069|33.9190|-84.5039
Atlanta|GA|30071|33.9446|-84.2099
Atlanta|GA|30075|34.0503|-84.3735
Atlanta|GA|30076|34.0275|-84.3034
Atlanta|GA|30078|33.8657|-84.0093
Atlanta|GA|30079|33.7938|-84.2582
Atlanta|GA|30080|33.8708|-84.5057
Atlanta|GA|30082|33.8577|-84.5470
Atlanta|GA|30083|33.7970|-84.1979
Atlanta|GA|30084|33.8548|-84.2189
Atlanta|GA|30087|33.8220|-84.1121
Atlanta|GA|30088|33.7598|-84.1765
Atlanta|GA|30092|33.9661|-84.2307
Atlanta|GA|30093|33.9053|-84.2000
Atlanta|GA|30094|33.6151|-84.0627
Atlanta|GA|30096|33.9788|-84.1602
Atlanta|GA|30097|34.0063|-84.1071
Atlanta|GA|30101|34.0251|-84.6978
Atlanta|GA|30102|34.1035|-84.6180
Atlanta|GA|30103|34.3520|-84.9088
Atlanta|GA|30106|33.8361|-84.6359
Atlanta|GA|30107|34.3456|-84.3711
Atlanta|GA|30108|33.5356|-85.2651
Atlanta|GA|30110|33.7529|-85.1213
Atlanta|GA|30113|33.8438|-85.1134
Atlanta|GA|30114|34.1849|-84.5264
Atlanta|GA|30115|34.2084|-84.3984
Atlanta|GA|30116|33.6124|-85.0022
Atlanta|GA|30117|33.6383|-85.1351
Atlanta|GA|30120|34.1867|-84.8434
Atlanta|GA|30121|34.2241|-84.8122
Atlanta|GA|30122|33.7700|-84.6434
Atlanta|GA|30126|33.8130|-84.5439
Atlanta|GA|30127|33.8767|-84.6843
Atlanta|GA|30132|34.0225|-84.8485
Atlanta|GA|30134|33.7653|-84.7397
Atlanta|GA|30135|33.6672|-84.7841
Atlanta|GA|30137|34.1136|-84.7666
Atlanta|GA|30139|34.4476|-84.6856
Atlanta|GA|30141|33.8622|-84.7761
Atlanta|GA|30143|34.4700|-84.4599
Atlanta|GA|30144|34.0355|-84.6116
Atlanta|GA|30145|34.2689|-85.0495
Atlanta|GA|30148|34.4209|-84.2996
Atlanta|GA|30152|33.9928|-84.6442
Atlanta|GA|30153|33.9793|-85.0432
Atlanta|GA|30157|33.8531|-84.9602
Atlanta|GA|30168|33.7837|-84.5803
Atlanta|GA|30170|33.4028|-85.1498
Atlanta|GA|30171|34.3412|-84.7217
Atlanta|GA|30175|34.5137|-84.5041
Atlanta|GA|30176|33.7456|-85.2962
Atlanta|GA|30177|34.4176|-84.3780
Atlanta|GA|30178|34.1262|-84.9973
Atlanta|GA|30179|33.7411|-85.0195
Atlanta|GA|30180|33.7355|-84.9482
Atlanta|GA|30182|33.6369|-85.2758
Atlanta|GA|30183|34.3475|-84.5868
Atlanta|GA|30184|34.2205|-84.6356
Atlanta|GA|30185|33.4951|-84.9073
Atlanta|GA|30187|33.6863|-84.8405
Atlanta|GA|30188|34.1219|-84.4550
Atlanta|GA|30189|34.1220|-84.5626
Atlanta|GA|30204|33.0476|-84.1251
Atlanta|GA|30205|33.2391|-84.4704
Atlanta|GA|30206|33.1175|-84.4433
Atlanta|GA|30213|33.5760|-84.5944
Atlanta|GA|30214|33.4906|-84.4927
Atlanta|GA|30215|33.3818|-84.4646
Atlanta|GA|30216|33.2590|-83.8987
Atlanta|GA|30217|33.2960|-85.0310
Atlanta|GA|30218|33.1585|-84.5867
Atlanta|GA|30220|33.1908|-84.8389
Atlanta|GA|30222|33.0721|-84.7417
Atlanta|GA|30223|33.2927|-84.3234
Atlanta|GA|30224|33.2135|-84.2320
Atlanta|GA|30228|33.4130|-84.2863
Atlanta|GA|30230|33.1720|-84.9120
Atlanta|GA|30233|33.2934|-83.9805
Atlanta|GA|30234|33.3234|-84.0384
Atlanta|GA|30236|33.5095|-84.3361
Atlanta|GA|30238|33.4994|-84.3797
Atlanta|GA|30248|33.3558|-84.1173
Atlanta|GA|30251|33.2037|-84.7056
Atlanta|GA|30252|33.4730|-84.0596
Atlanta|GA|30253|33.4502|-84.1892
Atlanta|GA|30256|33.0301|-84.3275
Atlanta|GA|30257|33.1347|-84.2065
Atlanta|GA|30258|33.0123|-84.4325
Atlanta|GA|30259|33.2743|-84.7566
Atlanta|GA|30260|33.5828|-84.3269
Atlanta|GA|30263|33.3749|-84.8299
Atlanta|GA|30265|33.3817|-84.7093
Atlanta|GA|30268|33.5374|-84.6465
Atlanta|GA|30269|33.4020|-84.5678
Atlanta|GA|30273|33.5829|-84.2763
Atlanta|GA|30274|33.5533|-84.4024
Atlanta|GA|30276|33.2838|-84.5777
Atlanta|GA|30277|33.4023|-84.6494
Atlanta|GA|30281|33.5492|-84.2217
Atlanta|GA|30288|33.6593|-84.3192
Atlanta|GA|30290|33.4817|-84.5869
Atlanta|GA|30291|33.5746|-84.5391
Atlanta|GA|30292|33.1781|-84.3870
Atlanta|GA|30293|32.9783|-84.5764
Atlanta|GA|30294|33.6553|-84.2331
Atlanta|GA|30295|33.0959|-84.3183
Atlanta|GA|30296|33.5706|-84.4363
Atlanta|GA|30297|33.6139|-84.3567
Atlanta|GA|30303|33.7522|-84.3894
Atlanta|GA|30305|33.8358|-84.3854
Atlanta|GA|30306|33.7833|-84.3594
Atlanta|GA|30307|33.7751|-84.3297
Atlanta|GA|30308|33.7699|-84.3768
Atlanta|GA|30309|33.7986|-84.3880
Atlanta|GA|30310|33.7255|-84.4308
Atlanta|GA|30311|33.7247|-84.4700
Atlanta|GA|30312|33.7440|-84.3794
Atlanta|GA|30313|33.7523|-84.4006
Atlanta|GA|30314|33.7575|-84.4356
Atlanta|GA|30315|33.7050|-84.3792
Atlanta|GA|30316|33.7120|-84.3245
Atlanta|GA|30317|33.7519|-84.3187
Atlanta|GA|30318|33.7927|-84.4453
Atlanta|GA|30319|33.8805|-84.3290
Atlanta|GA|30322|33.7956|-84.3237
Atlanta|GA|30324|33.8102|-84.3663
Atlanta|GA|30326|33.8503|-84.3617
Atlanta|GA|30327|33.8624|-84.4231
Atlanta|GA|30328|33.9328|-84.3829
Atlanta|GA|30329|33.8232|-84.3232
Atlanta|GA|30331|33.7240|-84.5389
Atlanta|GA|30336|33.7364|-84.5668
Atlanta|GA|30337|33.6524|-84.4617
Atlanta|GA|30338|33.9442|-84.3189
Atlanta|GA|30339|33.8705|-84.4678
Atlanta|GA|30340|33.8920|-84.2533
Atlanta|GA|30341|33.8885|-84.3029
Atlanta|GA|30342|33.8830|-84.3768
Atlanta|GA|30344|33.6689|-84.4578
Atlanta|GA|30345|33.8464|-84.2844
Atlanta|GA|30346|33.9236|-84.3372
Atlanta|GA|30349|33.6210|-84.5412
Atlanta|GA|30350|33.9826|-84.3335
Atlanta|GA|30354|33.6677|-84.3868
Atlanta|GA|30360|33.9311|-84.2759
Atlanta|GA|30518|34.1128|-84.0404
Atlanta|GA|30519|34.0827|-83.9358
Atlanta|GA|30534|34.4426|-84.1180
Atlanta|GA|30548|34.0996|-83.7351
Atlanta|GA|30620|33.9282|-83.7382
Atlanta|GA|30641|33.7769|-83.5674
Atlanta|GA|30655|33.7951|-83.6830
Atlanta|GA|30656|33.8602|-83.7094
Atlanta|GA|30666|33.9699|-83.5885
Atlanta|GA|30680|33.9869|-83.7010
Atlanta|GA|31085|33.3984|-83.5886
Atlanta|GA|31830|32.9001|-84.6852
Atlanta|GA|31064|33.3115|-83.6905
Atlanta|GA|31816|32.8863|-84.6105
Auburn|CA|95722|39.0021|-121.0400
Auburn|CA|95703|39.0075|-120.9857
Auburn|CA|95603|38.8979|-121.0953
Auburn|CA|95650|38.8090|-121.1571
Auburn|CA|95658|38.8787|-121.1408
Auburn|CA|95663|38.8519|-121.1870
Austin|TX|76511|30.7984|-97.4213
Austin|TX|76527|30.8302|-97.8049
Austin|TX|76530|30.7239|-97.5132
Austin|TX|76537|30.8130|-97.6177
Austin|TX|76574|30.5723|-97.4044
Austin|TX|78640|29.9968|-97.8521
Austin|TX|78641|30.5693|-97.8550
Austin|TX|78642|30.7042|-97.9220
Austin|TX|78644|29.8468|-97.6625
Austin|TX|78645|30.4718|-97.9720
Austin|TX|78648|29.7218|-97.6738
Austin|TX|78652|30.1298|-97.8227
Austin|TX|78653|30.3796|-97.5205
Austin|TX|78655|29.8371|-97.8231
Austin|TX|78656|29.8944|-97.8261
Austin|TX|78659|30.1867|-97.1878
Austin|TX|78660|30.4430|-97.6363
Austin|TX|78662|29.9695|-97.4462
Austin|TX|78664|30.5104|-97.6655
Austin|TX|78665|30.5245|-97.6422
Austin|TX|78666|29.8606|-97.9415
Austin|TX|78669|30.4008|-98.0752
Austin|TX|78676|30.0164|-98.1072
Austin|TX|78681|30.5226|-97.7159
Austin|TX|78701|30.2699|-97.7417
Austin|TX|78702|30.2657|-97.7146
Austin|TX|78703|30.2935|-97.7664
Austin|TX|78704|30.2413|-97.7694
Austin|TX|78705|30.2941|-97.7354
Austin|TX|78712|30.2854|-97.7343
Austin|TX|78717|30.4941|-97.7668
Austin|TX|78719|30.1150|-97.6825
Austin|TX|78721|30.2683|-97.6846
Austin|TX|78722|30.2908|-97.7159
Austin|TX|78723|30.3039|-97.6855
Austin|TX|78724|30.2908|-97.6418
Austin|TX|78725|30.2373|-97.5785
Austin|TX|78726|30.4192|-97.8461
Austin|TX|78727|30.4263|-97.7150
Austin|TX|78728|30.4517|-97.6815
Austin|TX|78729|30.4548|-97.7707
Austin|TX|78730|30.3752|-97.8160
Austin|TX|78731|30.3493|-97.7702
Austin|TX|78732|30.3639|-97.9006
Austin|TX|78733|30.3231|-97.8733
Austin|TX|78734|30.3857|-97.9468
Austin|TX|78735|30.2647|-97.8772
Austin|TX|78736|30.2434|-97.9129
Austin|TX|78737|30.1835|-97.9612
Austin|TX|78738|30.3206|-97.9808
Austin|TX|78739|30.1832|-97.8912
Austin|TX|78741|30.2300|-97.7130
Austin|TX|78742|30.2309|-97.6698
Austin|TX|78744|30.1847|-97.7589
Austin|TX|78745|30.2011|-97.8014
Austin|TX|78746|30.2988|-97.8166
Austin|TX|78747|30.1426|-97.7807
Austin|TX|78748|30.1652|-97.8242
Austin|TX|78749|30.2067|-97.8595
Austin|TX|78750|30.4558|-97.8084
Austin|TX|78751|30.3092|-97.7231
Austin|TX|78752|30.3333|-97.7053
Austin|TX|78753|30.3899|-97.6727
Austin|TX|78754|30.3524|-97.6460
Austin|TX|78756|30.3231|-97.7380
Austin|TX|78757|30.3529|-97.7344
Austin|TX|78758|30.3824|-97.7077
Austin|TX|78759|30.3941|-97.7506
Austin|TX|78957|29.9946|-97.1676
Austin|TX|78602|30.1340|-97.2972
Austin|TX|78610|30.0812|-97.8432
Austin|TX|78612|30.0965|-97.4637
Austin|TX|78613|30.5029|-97.8105
Austin|TX|78615|30.4514|-97.3996
Austin|TX|78616|29.9799|-97.6010
Austin|TX|78617|30.1385|-97.5867
Austin|TX|78619|30.0598|-98.0195
Austin|TX|78620|30.2221|-98.1912
Austin|TX|78621|30.2950|-97.3589
Austin|TX|78626|30.6690|-97.5694
Austin|TX|78628|30.6591|-97.6956
Austin|TX|78633|30.7183|-97.7551
Austin|TX|78634|30.5318|-97.5606